{"type": "FeatureCollection", "features": [ {"type": "Feature", "properties": {"norad_id": 30613, "name": "FENGYUN 1C DEB", "group": "fengyun-1c-debris", "lat": 62.973951450542444, "lon": 102.73239854815664, "alt_km": 481.8138454915188, "timestamp": "2025-12-24T11:33:00.294406+00:00", "meta": {"OBJECT_NAME": "FENGYUN 1C DEB", "OBJECT_ID": "1999-025AMU", "EPOCH": "2025-12-23T21:02:37.993632", "MEAN_MOTION": 15.19410293, "ECCENTRICITY": 0.006099, "INCLINATION": 98.3065, "RA_OF_ASC_NODE": 118.7116, "ARG_OF_PERICENTER": 129.1679, "MEAN_ANOMALY": 231.4994, "EPHEMERIS_TYPE": 0, "CLASSIFICATION_TYPE": "U", "NORAD_CAT_ID": 30613, "ELEMENT_SET_NO": 999, "REV_AT_EPOCH": 99565, "BSTAR": 0.0043179, "MEAN_MOTION_DOT": 0.00097107, "MEAN_MOTION_DDOT": 0}, "tle": {"line1": "1 30613U 99025AMU 25357.87682863  .00097107  00000+0  43179-2 0  9997", "line2": "2 30613  98.3065 118.7116 0060990 129.1679 231.4994 15.19410293995651"}}, "geometry": {"type": "Point", "coordinates": [102.73239854815664, 62.973951450542444]}}, {"type": "Feature", "properties": {"norad_id": 30616, "name": "FENGYUN 1C DEB", "group": "fengyun-1c-debris", "lat": 19.306868814744615, "lon": 51.86407109032941, "alt_km": 1376.9941600993961, "timestamp": "2025-12-24T11:33:00.294416+00:00", "meta": {"OBJECT_NAME": "FENGYUN 1C DEB", "OBJECT_ID": "1999-025AMX", "EPOCH": "2025-12-24T02:27:35.770176", "MEAN_MOTION": 13.36045986, "ECCENTRICITY": 0.0381541, "INCLINATION": 98.6403, "RA_OF_ASC_NODE": 54.5957, "ARG_OF_PERICENTER": 227.5097, "MEAN_ANOMALY": 129.3206, "EPHEMERIS_TYPE": 0, "CLASSIFICATION_TYPE": "U", "NORAD_CAT_ID": 30616, "ELEMENT_SET_NO": 999, "REV_AT_EPOCH": 91852, "BSTAR": 0.0017157, "MEAN_MOTION_DOT": 1.296e-05, "MEAN_MOTION_DDOT": 0}, "tle": {"line1": "1 30616U 99025AMX 25358.10249734  .00001296  00000+0  17157-2 0  9994", "line2": "2 30616  98.6403  54.5957 0381541 227.5097 129.3206 13.36045986918520"}}, "geometry": {"type": "Point", "coordinates": [51.86407109032941, 19.306868814744615]}}, {"type": "Feature", "properties": {"norad_id": 30619, "name": "FENGYUN 1C DEB", "group": "fengyun-1c-debris", "lat": 81.69630003608326, "lon": -67.20836917390747, "alt_km": 683.6038896945356, "timestamp": "2025-12-24T11:33:00.294427+00:00", "meta": {"OBJECT_NAME": "FENGYUN 1C DEB", "OBJECT_ID": "1999-025ANA", "EPOCH": "2025-12-24T01:09:08.000064", "MEAN_MOTION": 14.41122225, "ECCENTRICITY": 0.0215331, "INCLINATION": 98.2947, "RA_OF_ASC_NODE": 20.6529, "ARG_OF_PERICENTER": 24.4379, "MEAN_ANOMALY": 336.6838, "EPHEMERIS_TYPE": 0, "CLASSIFICATION_TYPE": "U", "NORAD_CAT_ID": 30619, "ELEMENT_SET_NO": 999, "REV_AT_EPOCH": 99112, "BSTAR": 0.00029304, "MEAN_MOTION_DOT": 1.193e-05, "MEAN_MOTION_DDOT": 0}, "tle": {"line1": "1 30619U 99025ANA 25358.04800926  .00001193  00000+0  29304-3 0  9990", "line2": "2 30619  98.2947  20.6529 0215331  24.4379 336.6838 14.41122225991121"}}, "geometry": {"type": "Point", "coordinates": [-67.20836917390747, 81.69630003608326]}}, {"type": "Feature", "properties": {"norad_id": 30621, "name": "FENGYUN 1C DEB", "group": "fengyun-1c-debris", "lat": -59.399857827649896, "lon": -43.59490860493271, "alt_km": 797.7579305148447, "timestamp": "2025-12-24T11:33:00.294438+00:00", "meta": {"OBJECT_NAME": "FENGYUN 1C DEB", "OBJECT_ID": "1999-025ANC", "EPOCH": "2025-12-22T07:33:01.039104", "MEAN_MOTION": 14.03884663, "ECCENTRICITY": 0.01366765, "INCLINATION": 98.698, "RA_OF_ASC_NODE": 299.3294, "ARG_OF_PERICENTER": 279.9015, "MEAN_ANOMALY": 234.7066, "EPHEMERIS_TYPE": 0, "CLASSIFICATION_TYPE": "U", "NORAD_CAT_ID": 30621, "ELEMENT_SET_NO": 999, "REV_AT_EPOCH": 95724, "BSTAR": 0.0020240679, "MEAN_MOTION_DOT": 3.427e-05, "MEAN_MOTION_DDOT": 0}, "tle": {"line1": "1 30621U 99025ANC 25356.31459536  .00003427  00000+0  20241-2 0  9990", "line2": "2 30621  98.6980 299.3294 0136676 279.9015 234.7066 14.03884663957242"}}, "geometry": {"type": "Point", "coordinates": [-43.59490860493271, -59.399857827649896]}}, {"type": "Feature", "properties": {"norad_id": 30622, "name": "FENGYUN 1C DEB", "group": "fengyun-1c-debris", "lat": -78.56492360856271, "lon": 119.02314245481188, "alt_km": 781.2148077425418, "timestamp": "2025-12-24T11:33:00.294448+00:00", "meta": {"OBJECT_NAME": "FENGYUN 1C DEB", "OBJECT_ID": "1999-025AND", "EPOCH": "2025-12-23T20:00:58.826016", "MEAN_MOTION": 14.31388151, "ECCENTRICITY": 0.0072428, "INCLINATION": 101.0013, "RA_OF_ASC_NODE": 12.3003, "ARG_OF_PERICENTER": 344.4391, "MEAN_ANOMALY": 189.7638, "EPHEMERIS_TYPE": 0, "CLASSIFICATION_TYPE": "U", "NORAD_CAT_ID": 30622, "ELEMENT_SET_NO": 999, "REV_AT_EPOCH": 68956, "BSTAR": 0.0030539544, "MEAN_MOTION_DOT": 8.28e-05, "MEAN_MOTION_DDOT": 0}, "tle": {"line1": "1 30622U 99025AND 25357.83401419  .00008280  00000+0  30540-2 0  9991", "line2": "2 30622 101.0013  12.3003 0072428 344.4391 189.7638 14.31388151689562"}}, "geometry": {"type": "Point", "coordinates": [119.02314245481188, -78.56492360856271]}}, {"type": "Feature", "properties": {"norad_id": 30623, "name": "FENGYUN 1C DEB", "group": "fengyun-1c-debris", "lat": 54.28805932664319, "lon": 8.007576170251047, "alt_km": 926.1621180859756, "timestamp": "2025-12-24T11:33:00.294459+00:00", "meta": {"OBJECT_NAME": "FENGYUN 1C DEB", "OBJECT_ID": "1999-025ANE", "EPOCH": "2025-12-23T06:54:49.140000", "MEAN_MOTION": 13.2934681, "ECCENTRICITY": 0.04037447, "INCLINATION": 98.8229, "RA_OF_ASC_NODE": 174.508, "ARG_OF_PERICENTER": 81.7723, "MEAN_ANOMALY": 92.4439, "EPHEMERIS_TYPE": 0, "CLASSIFICATION_TYPE": "U", "NORAD_CAT_ID": 30623, "ELEMENT_SET_NO": 999, "REV_AT_EPOCH": 91356, "BSTAR": 0.00050837283, "MEAN_MOTION_DOT": 3.36e-06, "MEAN_MOTION_DDOT": 0}, "tle": {"line1": "1 30623U 99025ANE 25357.28806875  .00000336  00000+0  50837-3 0  9992", "line2": "2 30623  98.8229 174.5080 0403744  81.7723  92.4439 13.29346810913561"}}, "geometry": {"type": "Point", "coordinates": [8.007576170251047, 54.28805932664319]}}, {"type": "Feature", "properties": {"norad_id": 30624, "name": "FENGYUN 1C DEB", "group": "fengyun-1c-debris", "lat": 66.31668690985587, "lon": 60.47152235250789, "alt_km": 694.2135733194436, "timestamp": "2025-12-24T11:33:00.294470+00:00", "meta": {"OBJECT_NAME": "FENGYUN 1C DEB", "OBJECT_ID": "1999-025ANF", "EPOCH": "2025-12-23T17:10:51.375360", "MEAN_MOTION": 14.62768117, "ECCENTRICITY": 0.00239497, "INCLINATION": 98.8867, "RA_OF_ASC_NODE": 80.5465, "ARG_OF_PERICENTER": 238.8957, "MEAN_ANOMALY": 120.9892, "EPHEMERIS_TYPE": 0, "CLASSIFICATION_TYPE": "U", "NORAD_CAT_ID": 30624, "ELEMENT_SET_NO": 999, "REV_AT_EPOCH": 97656, "BSTAR": 0.00469203, "MEAN_MOTION_DOT": 0.00024052, "MEAN_MOTION_DDOT": 0}, "tle": {"line1": "1 30624U 99025ANF 25357.71587240  .00024052  00000+0  46920-2 0  9991", "line2": "2 30624  98.8867  80.5465 0023949 238.8957 120.9892 14.62768117976567"}}, "geometry": {"type": "Point", "coordinates": [60.47152235250789, 66.31668690985587]}}, {"type": "Feature", "properties": {"norad_id": 30625, "name": "FENGYUN 1C DEB", "group": "fengyun-1c-debris", "lat": -39.33339198493248, "lon": 127.56714942642132, "alt_km": 735.9604782279421, "timestamp": "2025-12-24T11:33:00.294480+00:00", "meta": {"OBJECT_NAME": "FENGYUN 1C DEB", "OBJECT_ID": "1999-025ANG", "EPOCH": "2025-12-22T20:13:15.565728", "MEAN_MOTION": 14.41747552, "ECCENTRICITY": 0.00482641, "INCLINATION": 98.9265, "RA_OF_ASC_NODE": 313.2551, "ARG_OF_PERICENTER": 272.7745, "MEAN_ANOMALY": 86.7919, "EPHEMERIS_TYPE": 0, "CLASSIFICATION_TYPE": "U", "NORAD_CAT_ID": 30625, "ELEMENT_SET_NO": 999, "REV_AT_EPOCH": 96838, "BSTAR": 0.0039136911, "MEAN_MOTION_DOT": 0.00012927, "MEAN_MOTION_DDOT": 0}, "tle": {"line1": "1 30625U 99025ANG 25356.84254127  .00012927  00000+0  39137-2 0  9990", "line2": "2 30625  98.9265 313.2551 0048264 272.7745  86.7919 14.41747552968389"}}, "geometry": {"type": "Point", "coordinates": [127.56714942642132, -39.33339198493248]}}, {"type": "Feature", "properties": {"norad_id": 30628, "name": "FENGYUN 1C DEB", "group": "fengyun-1c-debris", "lat": -28.861175690973724, "lon": -78.912366234089, "alt_km": 677.1707573421681, "timestamp": "2025-12-24T11:33:00.294490+00:00", "meta": {"OBJECT_NAME": "FENGYUN 1C DEB", "OBJECT_ID": "1999-025ANK", "EPOCH": "2025-12-23T17:42:22.043232", "MEAN_MOTION": 14.69354016, "ECCENTRICITY": 0.00218278, "INCLINATION": 99.3407, "RA_OF_ASC_NODE": 275.0336, "ARG_OF_PERICENTER": 210.4518, "MEAN_ANOMALY": 149.5417, "EPHEMERIS_TYPE": 0, "CLASSIFICATION_TYPE": "U", "NORAD_CAT_ID": 30628, "ELEMENT_SET_NO": 999, "REV_AT_EPOCH": 98632, "BSTAR": 0.0025201456, "MEAN_MOTION_DOT": 0.00014915, "MEAN_MOTION_DDOT": 0}, "tle": {"line1": "1 30628U 99025ANK 25357.73775513  .00014915  00000+0  25201-2 0  9995", "line2": "2 30628  99.3407 275.0336 0021827 210.4518 149.5417 14.69354016986328"}}, "geometry": {"type": "Point", "coordinates": [-78.912366234089, -28.861175690973724]}}, {"type": "Feature", "properties": {"norad_id": 30629, "name": "FENGYUN 1C DEB", "group": "fengyun-1c-debris", "lat": 77.38050899207813, "lon": 49.03844808364466, "alt_km": 686.3244421914724, "timestamp": "2025-12-24T11:33:00.294501+00:00", "meta": {"OBJECT_NAME": "FENGYUN 1C DEB", "OBJECT_ID": "1999-025ANL", "EPOCH": "2025-12-23T12:44:01.267008", "MEAN_MOTION": 14.59841915, "ECCENTRICITY": 0.00074927, "INCLINATION": 99.2511, "RA_OF_ASC_NODE": 94.6982, "ARG_OF_PERICENTER": 174.706, "MEAN_ANOMALY": 313.3591, "EPHEMERIS_TYPE": 0, "CLASSIFICATION_TYPE": "U", "NORAD_CAT_ID": 30629, "ELEMENT_SET_NO": 999, "REV_AT_EPOCH": 98047, "BSTAR": 0.0029501862, "MEAN_MOTION_DOT": 0.00014085, "MEAN_MOTION_DDOT": 0}, "tle": {"line1": "1 30629U 99025ANL 25357.53057022  .00014085  00000+0  29502-2 0  9998", "line2": "2 30629  99.2511  94.6982 0007492 174.7060 313.3591 14.59841915980474"}}, "geometry": {"type": "Point", "coordinates": [49.03844808364466, 77.38050899207813]}}]}